{
    "links": {
        "self": "http://www.neowsapp.com/rest/v1/neo/3840688?api_key=iIulBulltgU6a56xZRHN4H3l9WmuAYTsLGpBGhQ2"
    },
    "id": "3840688",
    "neo_reference_id": "3840688",
    "name": "(2019 FP)",
    "designation": "2019 FP",
    "nasa_jpl_url": "http://ssd.jpl.nasa.gov/sbdb.cgi?sstr=3840688",
    "absolute_magnitude_h": 26.2,
    "estimated_diameter": {
        "kilometers": {
            "estimated_diameter_min": 0.0152951935,
            "estimated_diameter_max": 0.0342010925
        },
        "meters": {
            "estimated_diameter_min": 15.2951935344,
            "estimated_diameter_max": 34.201092472
        },
        "miles": {
            "estimated_diameter_min": 0.0095039897,
            "estimated_diameter_max": 0.021251567
        },
        "feet": {
            "estimated_diameter_min": 50.1810827555,
            "estimated_diameter_max": 112.2083122258
        }
    },
    "is_potentially_hazardous_asteroid": false,
    "close_approach_data": [
        {
            "close_approach_date": "2016-11-01",
            "close_approach_date_full": "2016-Nov-01 21:49",
            "epoch_date_close_approach": 1478036940000,
            "relative_velocity": {
                "kilometers_per_second": "25.0526371981",
                "kilometers_per_hour": "90189.4939130776",
                "miles_per_hour": "56040.2441483787"
            },
            "miss_distance": {
                "astronomical": "0.4802487329",
                "lunar": "186.8167570981",
                "kilometers": "71844187.512038923",
                "miles": "44641908.0471982174"
            },
            "orbiting_body": "Earth"
        },
        {
            "close_approach_date": "2019-03-23",
            "close_approach_date_full": "2019-Mar-23 01:32",
            "epoch_date_close_approach": 1553304720000,
            "relative_velocity": {
                "kilometers_per_second": "12.0584042448",
                "kilometers_per_hour": "43410.2552812854",
                "miles_per_hour": "26973.4444551965"
            },
            "miss_distance": {
                "astronomical": "0.0093565838",
                "lunar": "3.6397110982",
                "kilometers": "1399725.006956506",
                "miles": "869748.7885355428"
            },
            "orbiting_body": "Earth"
        },
        {
            "close_approach_date": "2019-03-23",
            "close_approach_date_full": "2019-Mar-23 06:13",
            "epoch_date_close_approach": 1553321580000,
            "relative_velocity": {
                "kilometers_per_second": "12.2642881602",
                "kilometers_per_hour": "44151.4373766484",
                "miles_per_hour": "27433.9861855069"
            },
            "miss_distance": {
                "astronomical": "0.0093030154",
                "lunar": "3.6188729906",
                "kilometers": "1391711.288417198",
                "miles": "864769.2947374124"
            },
            "orbiting_body": "Moon"
        },
        {
            "close_approach_date": "2042-11-08",
            "close_approach_date_full": "2042-Nov-08 06:32",
            "epoch_date_close_approach": 2299041120000,
            "relative_velocity": {
                "kilometers_per_second": "22.1352831789",
                "kilometers_per_hour": "79687.0194439176",
                "miles_per_hour": "49514.4149428054"
            },
            "miss_distance": {
                "astronomical": "0.3876189661",
                "lunar": "150.7837778129",
                "kilometers": "57986971.700162207",
                "miles": "36031433.4147121766"
            },
            "orbiting_body": "Earth"
        },
        {
            "close_approach_date": "2045-04-07",
            "close_approach_date_full": "2045-Apr-07 05:06",
            "epoch_date_close_approach": 2375154360000,
            "relative_velocity": {
                "kilometers_per_second": "17.9448629814",
                "kilometers_per_hour": "64601.5067328625",
                "miles_per_hour": "40140.8640029834"
            },
            "miss_distance": {
                "astronomical": "0.2153389274",
                "lunar": "83.7668427586",
                "kilometers": "32214244.867124638",
                "miles": "20017003.5596424844"
            },
            "orbiting_body": "Earth"
        }
    ],
    "orbital_data": {
        "orbit_id": "3",
        "orbit_determination_date": "2019-04-01 06:59:30",
        "first_observation_date": "2019-03-25",
        "last_observation_date": "2019-04-01",
        "data_arc_in_days": 7,
        "observations_used": 48,
        "orbit_uncertainty": "8",
        "minimum_orbit_intersection": ".00612604",
        "jupiter_tisserand_invariant": "4.084",
        "epoch_osculation": "2458569.5",
        "eccentricity": ".4898156009791497",
        "semi_major_axis": "1.675702151282216",
        "inclination": "8.496365925347758",
        "ascending_node_longitude": "3.261040755655162",
        "orbital_period": "792.3073188429505",
        "perihelion_distance": ".8549170949898632",
        "perihelion_argument": "122.0157802927803",
        "aphelion_distance": "2.496487207574568",
        "perihelion_time": "2458524.366890794255",
        "mean_anomaly": "20.50709229569647",
        "mean_motion": ".4543691462117598",
        "equinox": "J2000",
        "orbit_class": {
            "orbit_class_type": "APO",
            "orbit_class_description": "Near-Earth asteroid orbits which cross the Earth’s orbit similar to that of 1862 Apollo",
            "orbit_class_range": "a (semi-major axis) > 1.0 AU; q (perihelion) < 1.017 AU"
        }
    },
    "is_sentry_object": false
}